STARLINK-37766          
1 69216U 26115F   26169.91668981 -.02237727  00000+0 -49397-1 0  9995
2 69216  97.2855 187.2769 0002150  90.0368 310.1970 15.47576162  4960
STARLINK-37763          
1 69217U 26115G   26169.91668981  .00092463  00000+0  16847-2 0  9993
2 69217  97.2848 187.2254 0001429  87.1231 186.4229 15.49140065  4968
STARLINK-37724          
1 69218U 26115H   26169.91668981 -.02371833  00000+0 -61803-1 0  9990
2 69218  97.2851 187.3206 0001782  68.4966  47.3143 15.42349879  4967
STARLINK-37758          
1 69219U 26115J   26169.91668981 -.02279071  00000+0 -57729-1 0  9994
2 69219  97.2852 187.3303 0001932  65.7009  75.1330 15.43048489  4963
STARLINK-37201          
1 69220U 26115K   26169.91668981 -.02364773  00000+0 -61427-1 0  9990
2 69220  97.2864 187.3273 0001852  71.0048  59.3645 15.42431569  4965
STARLINK-37728          
1 69221U 26115L   26169.91668981 -.02612601  00000+0 -57675-1 0  9997
2 69221  97.2840 187.3129 0001953  75.4496  46.6662 15.47547244  4968
STARLINK-37760          
1 69222U 26115M   26169.91668981 -.02348999  00000+0 -58125-1 0  9995
2 69222  97.2845 187.3417 0001929  65.1327 101.4752 15.43843126  4960
STARLINK-37759          
1 69223U 26115N   26169.91668981  .00086179  00000+0  15714-2 0  9999
2 69223  97.2846 187.2288 0001384  95.6949 186.3911 15.49143424  4969
STARLINK-37725          
1 69224U 26115P   26169.91668981  .00082741  00000+0  15093-2 0  9991
2 69224  97.2847 187.2343 0001049  83.2023 211.5177 15.49147324  4965
STARLINK-37770          
1 69225U 26115Q   26169.91668981 -.02406817  00000+0 -57426-1 0  9995
2 69225  97.2847 187.3523 0002130  76.0194 127.3259 15.44994330  4965
STARLINK-37736          
1 69226U 26115R   26169.91668981 -.02342535  00000+0 -48657-1 0  9998
2 69226  97.2852 187.3382 0002268  85.7839  91.4744 15.49487231  4962
STARLINK-37737          
1 69227U 26115S   26169.91668981 -.02356012  00000+0 -53178-1 0  9998
2 69227  97.2855 187.3657 0002073  84.3280 150.6408 15.46531900  4987
STARLINK-37618          
1 69228U 26115T   26169.91668981  .00088732  00000+0  16175-2 0  9993
2 69228  97.2846 187.2257 0001707  89.9831 185.5595 15.49141968  4965
STARLINK-37679          
1 69229U 26115U   26169.91668981  .00091489  00000+0  16669-2 0  9995
2 69229  97.2845 187.2320 0001212  92.8663 197.0527 15.49145494  4964
STARLINK-37746          
1 69230U 26115V   26169.91668981  .00088479  00000+0  16121-2 0  9995
2 69230  97.2848 187.2122 0000701 150.0108  94.2535 15.49157590  4969
STARLINK-37557          
1 69231U 26115W   26169.76858615  .00029318  00000+0  53832-3 0  9992
2 69231  97.2840 187.0035 0000687 121.7533 238.3785 15.49210116  4910
STARLINK-37745          
1 69232U 26115X   26169.91668981 -.02403884  00000+0 -52071-1 0  9995
2 69232  97.2854 187.3935 0001560  85.9511 213.3011 15.47789092  4968
STARLINK-37739          
1 69233U 26115Y   26169.91668981  .00107739  00000+0  19590-2 0  9992
2 69233  97.2850 187.2096 0001184  80.6373 152.9343 15.49140597  4961
STARLINK-37755          
1 69234U 26115Z   26169.97413008  .00147251  00000+0  96809-3 0  9999
2 69234  97.2838 187.4892 0002187  81.6784 278.4729 15.75262567  4968
TJS-24                  
1 69235U 26116A   26169.98406800 -.00000238  00000+0  00000+0 0  9992
2 69235   0.0130  82.9104 0000320 313.0668 315.7862  1.00272416   248
STARLINK-37665          
1 69238U 26117A   26169.88795248  .00289239  00000+0  13377-2 0  9995
2 69238  53.1568 235.0845 0004150 269.5614  90.4934 15.82165510  3240
STARLINK-37558          
1 69239U 26117B   26169.88701723  .00203529  00000+0  95757-3 0  9992
2 69239  53.1567 235.0779 0001209  80.6857 279.4303 15.82038495  3249
STARLINK-37680          
1 69240U 26117C   26169.88558820  .00292530  00000+0  13541-2 0  9992
2 69240  53.1568 235.0683 0002766  76.6185 283.5146 15.82141837  3240
STARLINK-37742          
1 69241U 26117D   26169.88379341  .00249534  00000+0  11667-2 0  9995
2 69241  53.1569 235.0571 0001548  68.3149 291.8039 15.82044385  3246
STARLINK-37718          
1 69242U 26117E   26169.88255956  .00336784  00000+0  15530-2 0  9998
2 69242  53.1568 235.0475 0001365  49.5173 310.5970 15.82106876  3241
STARLINK-37735          
1 69243U 26117F   26168.68212490  .00197947  00000+0  93063-3 0  9996
2 69243  53.1576 241.0729 0000921 106.9398 253.1726 15.82070089  3050
STARLINK-37757          
1 69244U 26117G   26169.88005864  .00303040  00000+0  14083-2 0  9992
2 69244  53.1567 235.0307 0001065  98.3495 261.7649 15.82029185  3249
STARLINK-37767          
1 69245U 26117H   26169.68626285  .00225247  00000+0  10547-2 0  9990
2 69245  53.1564 235.9527 0000946 126.8226 233.2884 15.82080407  3212
STARLINK-35759          
1 69246U 26117J   26168.67478256  .00198956  00000+0  93579-3 0  9995
2 69246  53.1569 241.0219 0000787  93.2044 266.9069 15.82057442  3055
