OBJECT_NAME,OBJECT_ID,EPOCH,MEAN_MOTION,ECCENTRICITY,INCLINATION,RA_OF_ASC_NODE,ARG_OF_PERICENTER,MEAN_ANOMALY,EPHEMERIS_TYPE,CLASSIFICATION_TYPE,NORAD_CAT_ID,ELEMENT_SET_NO,REV_AT_EPOCH,BSTAR,MEAN_MOTION_DOT,MEAN_MOTION_DDOT
STARLINK-37766,2026-115F,2026-06-18T22:00:01.999584,15.47576162,.00021503,97.2855,187.2769,90.0368,310.1970,0,U,69216,999,496,-.49397345E-1,-.2237727E-1,0
STARLINK-37763,2026-115G,2026-06-18T22:00:01.999584,15.49140065,.00014292,97.2848,187.2254,87.1231,186.4229,0,U,69217,999,496,.16847446E-2,.92463E-3,0
STARLINK-37724,2026-115H,2026-06-18T22:00:01.999584,15.42349879,.00017829,97.2851,187.3206,68.4966,47.3143,0,U,69218,999,496,-.61803468E-1,-.2371833E-1,0
STARLINK-37758,2026-115J,2026-06-18T22:00:01.999584,15.43048489,.00019323,97.2852,187.3303,65.7009,75.1330,0,U,69219,999,496,-.57728834E-1,-.2279071E-1,0
STARLINK-37201,2026-115K,2026-06-18T22:00:01.999584,15.42431569,.0001852,97.2864,187.3273,71.0048,59.3645,0,U,69220,999,496,-.61426828E-1,-.2364773E-1,0
STARLINK-37728,2026-115L,2026-06-18T22:00:01.999584,15.47547244,.00019539,97.2840,187.3129,75.4496,46.6662,0,U,69221,999,496,-.57675459E-1,-.2612601E-1,0
STARLINK-37760,2026-115M,2026-06-18T22:00:01.999584,15.43843126,.00019294,97.2845,187.3417,65.1327,101.4752,0,U,69222,999,496,-.58124746E-1,-.2348999E-1,0
STARLINK-37759,2026-115N,2026-06-18T22:00:01.999584,15.49143424,.0001384,97.2846,187.2288,95.6949,186.3911,0,U,69223,999,496,.15714301E-2,.86179E-3,0
STARLINK-37725,2026-115P,2026-06-18T22:00:01.999584,15.49147324,.00010498,97.2847,187.2343,83.2023,211.5177,0,U,69224,999,496,.15092841E-2,.82741E-3,0
STARLINK-37770,2026-115Q,2026-06-18T22:00:01.999584,15.44994330,.00021301,97.2847,187.3523,76.0194,127.3259,0,U,69225,999,496,-.57425727E-1,-.2406817E-1,0
STARLINK-37736,2026-115R,2026-06-18T22:00:01.999584,15.49487231,.00022688,97.2852,187.3382,85.7839,91.4744,0,U,69226,999,496,-.48657264E-1,-.2342535E-1,0
STARLINK-37737,2026-115S,2026-06-18T22:00:01.999584,15.46531900,.00020735,97.2855,187.3657,84.3280,150.6408,0,U,69227,999,498,-.53178287E-1,-.2356012E-1,0
STARLINK-37618,2026-115T,2026-06-18T22:00:01.999584,15.49141968,.00017076,97.2846,187.2257,89.9831,185.5595,0,U,69228,999,496,.16174671E-2,.88732E-3,0
STARLINK-37679,2026-115U,2026-06-18T22:00:01.999584,15.49145494,.00012126,97.2845,187.2320,92.8663,197.0527,0,U,69229,999,496,.16669114E-2,.91489E-3,0
STARLINK-37746,2026-115V,2026-06-18T22:00:01.999584,15.49157590,.00007019,97.2848,187.2122,150.0108,94.2535,0,U,69230,999,496,.16120695E-2,.88479E-3,0
STARLINK-37557,2026-115W,2026-06-18T18:26:45.843360,15.49210116,.00006875,97.2840,187.0035,121.7533,238.3785,0,U,69231,999,491,.53832448E-3,.29318E-3,0
STARLINK-37745,2026-115X,2026-06-18T22:00:01.999584,15.47789092,.00015605,97.2854,187.3935,85.9511,213.3011,0,U,69232,999,496,-.52071444E-1,-.2403884E-1,0
STARLINK-37739,2026-115Y,2026-06-18T22:00:01.999584,15.49140597,.00011849,97.2850,187.2096,80.6373,152.9343,0,U,69233,999,496,.19589639E-2,.107739E-2,0
STARLINK-37755,2026-115Z,2026-06-18T23:22:44.838912,15.75262567,.00021878,97.2838,187.4892,81.6784,278.4729,0,U,69234,999,496,.96808828E-3,.147251E-2,0
TJS-24,2026-116A,2026-06-18T23:37:03.475200,1.00272416,.00003202,0.0130,82.9104,313.0668,315.7862,0,U,69235,999,24,0,-.238E-5,0
STARLINK-37665,2026-117A,2026-06-18T21:18:39.094272,15.82165510,.00041503,53.1568,235.0845,269.5614,90.4934,0,U,69238,999,324,.13376511E-2,.289239E-2,0
STARLINK-37558,2026-117B,2026-06-18T21:17:18.288672,15.82038495,.00012092,53.1567,235.0779,80.6857,279.4303,0,U,69239,999,324,.95756722E-3,.203529E-2,0
STARLINK-37680,2026-117C,2026-06-18T21:15:14.820480,15.82141837,.00027661,53.1568,235.0683,76.6185,283.5146,0,U,69240,999,324,.13540835E-2,.29253E-2,0
STARLINK-37742,2026-117D,2026-06-18T21:12:39.750624,15.82044385,.00015484,53.1569,235.0571,68.3149,291.8039,0,U,69241,999,324,.11666796E-2,.249534E-2,0
STARLINK-37718,2026-117E,2026-06-18T21:10:53.145984,15.82106876,.00013656,53.1568,235.0475,49.5173,310.5970,0,U,69242,999,324,.15530169E-2,.336784E-2,0
STARLINK-37735,2026-117F,2026-06-17T16:22:15.591360,15.82070089,.00009213,53.1576,241.0729,106.9398,253.1726,0,U,69243,999,305,.930631E-3,.197947E-2,0
STARLINK-37757,2026-117G,2026-06-18T21:07:17.066496,15.82029185,.00010659,53.1567,235.0307,98.3495,261.7649,0,U,69244,999,324,.14083204E-2,.30304E-2,0
STARLINK-37767,2026-117H,2026-06-18T16:28:13.110240,15.82080407,.00009461,53.1564,235.9527,126.8226,233.2884,0,U,69245,999,321,.10546571E-2,.225247E-2,0
STARLINK-35759,2026-117J,2026-06-17T16:11:41.213184,15.82057442,.00007879,53.1569,241.0219,93.2044,266.9069,0,U,69246,999,305,.93579314E-3,.198956E-2,0
